#dP2022  6 24 12  0  0.00000000      96 __u+U ITR00 EXT  IAC
## 2215 475200.00000000   900.00000000 59754 0.5000000000000
+  116   C06C07C08C09C10C11C12C13C14C16C19C20C21C22C23C24C25
+        C26C27C28C29C30C32C33C34C35C36C37C38C39C40C41C42C43
+        C44C45C46E01E02E03E04E05E07E08E09E10E11E12E13E14E15
+        E18E19E21E24E25E26E27E30E31E33E34E36G01G02G03G04G05
+        G06G07G08G09G10G11G12G13G14G15G16G17G18G19G20G21G22
+        G23G24G25G26G27G28G29G30G31G32J02J03R01R02R03R04R05
+        R07R08R09R11R12R13R14R15R17R18R19R20R21R24  0  0  0
++         8 13 10  8 10  7  9 10  8 10  7  9  8  8  8  7  8
++         8  8  7  9 10  8 10  9  9  8  8  8 10 10 10  8  9
++         9  8  9  8  8  6  8  7  8  8  7  8  8  8  7  7  9
++         8  7  8  7  8  8  8  7  7  8  6  9  7  6  7  8  9
++         6  8  8  8  7  6  7  8  7  7  7  7  7  7  8  7  8
++         7  6  6  6  7  7  7  6  7  7  8  9  8  8  8  7  9
++         8  7  7  8 11  9  8  7  8  9  8  8  8  6  0  0  0
%c M  cc GPS ccc cccc cccc cccc cccc ccccc ccccc ccccc ccccc
%c cc cc ccc ccc cccc cccc cccc cccc ccccc ccccc ccccc ccccc
%f  0.0000000  0.000000000  0.00000000000  0.000000000000000
%f  0.0000000  0.000000000  0.00000000000  0.000000000000000
%i    0    0    0    0      0      0      0      0         0
%i    0    0    0    0      0      0      0      0         0
/* IAC                                ULTRA-RAPID PREDICTION
/* S/V CLOCKS ARE ALIGNED TO GNSS TIME                      
/* G:C1WC2W R:C1PC2P E:C1XC5X C:C2IC6I J:C1CC2S             
/* PCV:IGS14_2196 OL/AL:FES2004  NONE     YN ORB:CoN CLK:CoN
*  2022 06 25  9 15  0.00000000
PC06 -15649.008497  37651.334458 -11158.377361    261.130567
PC07  -1164.261370  34767.198698 -23718.632306   -344.668576
PC08 -10310.537545  19964.047376  35659.485771    377.683546
PC09 -11950.860062  36739.545412 -17094.389017   -916.389665
PC10   4903.019718  36798.263448 -19229.350913    123.755404
PC11   1341.115800  21059.511843  18299.928953    435.693612
PC12 -12327.899695  24850.902362   2977.224458   -591.382534
PC13  -3847.017967  22184.953478  35753.273971      5.828802
PC14  11918.906502  24933.785029   3642.876691    515.569169
PC16 -18048.536396  37390.219617  -7938.618877    141.152716
PC19 -17267.767645 -21147.597063   5867.635604    -74.245957
PC20  -6142.193158 -24957.384851 -10899.471018   -965.198087
PC21  -9516.459995  13910.964770  22253.399582   -552.530116
PC22 -18881.671197  -5008.043736  19943.055516   -963.482808
PC23  27885.537249    490.420118   -917.052350   -937.394631
PC24  -1886.888624  16265.710209 -22598.738293   -969.170912
PC25  19779.705103  11075.387964 -16290.384679   -716.850382
PC26 -19533.849635  11999.633753 -15897.848326    718.577069
PC27  17003.225663 -21370.687366   5684.072707    744.362882
PC28  19065.813600  -5888.290454  19508.202847     82.596660
PC29 -10240.238617 -13539.478305 -22159.893582    573.084527
PC30   4757.317075 -25200.248839 -10990.804531    500.340761
PC32   9414.955648 -13976.220641 -22229.811083   -971.430755
PC33  17330.192822  21088.212013  -5741.433641    -15.161132
PC34  -3998.237259  24960.814283  11827.394078   -373.081723
PC35 -18705.382537   5345.719440 -20031.665900    336.609714
PC36 -19032.445017 -11805.131885  16676.773452   -970.205070
PC37  20801.296086 -10968.588126  15058.025144   -911.166654
PC38 -18655.048612  20642.651864  31663.855252      5.619505
PC39 -19505.485277  37434.458640  -2055.308233     34.997105
PC40  -5264.804842  30756.433248 -28291.844015    280.273775
PC41  19014.679206   5436.551055 -19633.454742    -29.335264
PC42   5225.894362  24711.878349  11880.721129   -957.648217
PC43   9767.790177  14297.049090  21874.766488   -916.160336
PC44 -16382.722725  21832.301953  -5899.118436    703.526793
PC45 -27888.227806   -284.487501    638.898660    792.468673
PC46     76.083276 -16175.940803  22747.071860   -397.651877
PE01  27023.865436  10034.792686   6726.239009   -502.860422
PE02 -27022.823065  -9909.252482  -6885.292393    307.890926
PE03 -16788.023816  -5831.735354  23676.734290   -572.409335
PE04  14156.095136 -16106.672229 -20395.058199  -1057.566854
PE05  -9590.693743 -24764.058040  13087.522282   -168.920051
PE07  -3087.245698  29011.473614   4968.617602   -681.665005
PE08 -13916.955422  16333.920365  20388.120763   -552.603140
PE09   2919.860996 -29049.859319  -4922.383521   -565.476230
PE10  19677.412870 -19643.930547 -10174.445040   -522.019144
PE11  10663.773726 -20473.829567 -18536.959898   3231.880096
PE12  25110.839149 -15639.981218   -697.394940    -29.038813
PE13 -11374.726738  20507.872209  18060.835003    429.480889
PE14 -19625.846587  -5037.393631 -24288.368134  -1797.710268
PE15 -25144.441261  15615.067329    522.139373    737.245833
PE18  16076.637789  -9507.195974  17121.411884  -1288.921224
PE19  16247.515182   8683.419649 -23156.932692  -5274.308359
PE21  19576.261292  19410.504174 -10774.244482   -742.201924
PE24    932.541875 -17947.578333  23507.129797   -689.797523
PE25 -19360.626257 -19489.781466  11031.291572   -578.818371
PE26   9951.143685  12897.328246  24709.732108  -1302.919474
PE27    406.825433  18352.720045 -23215.904255   -330.097754
PE30 -19582.924756   5745.137039 -21442.771114   -620.672845
PE31  18832.995875  -6513.009988  21896.796214   -498.846718
PE33  24012.374736  -1538.692071  17230.318533   -455.297652
PE34 -24099.310154   1723.015669 -17108.786278   -523.887944
PE36  -8975.885634 -13323.355400 -24866.733967   -393.063720
PG01   3118.761708 -16406.023572 -20868.231854    334.196716
PG02 -20784.922606  15929.051061   5554.492145   -652.313346
PG03  -6505.680904 -19133.634134 -17409.436910   -289.111324
PG04    973.113634 -26268.090625   3460.751129   -153.259826
PG05  -8282.698552  12646.381083  21668.977779    -86.790845
PG06 -24680.720877   4910.329076  -8563.671473    358.003132
PG07 -13924.690446 -10022.710855  20800.274792    321.138102
PG08   5243.860125 -25375.127687   4867.625572    -73.560318
PG09  -7208.458430 -22244.941582  12498.155616   -325.223854
PG10  23397.628963  10677.864292  -7077.469680   -468.228516
PG11 -22904.679455  12547.163780   4762.606092    -13.003462
PG12   1842.857337  18590.572426 -19190.016774   -236.497430
PG13 -13030.273431  19620.600908  11944.807460    336.376204
PG14 -22877.567090 -12162.649896  -6075.153030   -111.910467
PG15  -2251.133775  25884.331422   4213.849745    -50.491481
PG16  14090.708896  -7071.088303  21170.681201   -511.341908
PG17 -13472.226521  -6929.844321 -21377.244329    629.251154
PG18  13202.418995   9809.004634  20870.189506    132.191861
PG19 -15429.998423   2304.075071 -21721.144312    175.287744
PG20 -18367.490496   5640.377016  18242.903711    508.533331
PG21  12396.674936 -18052.198178 -13889.446112    161.290035
PG22  15470.409363  -5750.175520 -20353.334910    281.589526
PG23  20640.853400  16496.519720   3221.295692    -29.843884
PG24  -6166.254464  18663.183436 -17978.062138    212.778744
PG25  15324.701227  19493.080683 -10169.992529    341.572990
PG26  21466.501646   -148.357719  15749.938361    214.476141
PG27  12366.668807 -17057.340667  15712.605949    218.051837
PG28 -21481.401931  -6076.556079 -13700.680889    331.284765
PG29   5312.869045  22223.626911  13424.911555   -527.438355
PG30 -21729.774769  -2787.576205  15280.717214   -532.369912
PG31  25389.638330  -6149.293749  -6145.606107   -183.192628
PG32  14871.103081   3780.510178 -21541.388618   -159.868793
PJ02 -26593.162385  15444.831180 -24281.970798     -0.985423
PJ03 -25520.733953  33577.874813   1651.268640     -3.073203
PR01  11840.558493    510.855805 -22581.734252     10.467380
PR02   2518.892940 -17962.386980 -17860.873210    522.279264
PR03  -7555.721859 -24199.049308  -2516.531981     59.063353
PR04 -13015.776169 -16932.057211  13973.775716    148.140395
PR05 -11432.063568   -357.618517  22811.809858     95.210024
PR07   7846.924064  24225.593954   1898.149950     36.935037
PR08  13128.082210  16830.962650 -13924.794030    -65.877000
PR09 -11069.741326   8895.985787 -21187.839551     62.379323
PR11  22086.093695   8185.529227  -9757.070293     35.183209
PR12  23921.058101   -269.798208   8901.651328     19.030464
PR13  12325.128165  -8136.983871  20785.906301    -23.933768
PR14  -8070.300292 -11733.978714  21183.209294     25.119397
PR15 -22453.475172  -8195.493290   8940.844237     95.129700
PR17   3748.005033 -17333.727388 -18352.400721    537.931411
PR18  -9300.081698  -5149.058767 -23182.628176    121.437610
PR19 -17450.951782   8184.470566 -16712.290545   -193.997029
PR20 -16312.981195  19489.742396   2407.285852    -73.300237
PR21  -2637.598380  16444.962618  19301.554072   -312.249989
PR24  15457.273143 -20068.041600  -3065.768670    100.410427
EOF
